STARLINK-31232          
1 58831U 24017F   26068.65104669  .00000276  00000+0  21441-4 0  9998
2 58831  53.1603 204.2623 0001181  50.6420 309.4685 15.30187107120058
TRANSPORTER-12 OBJECT AZ
1 62656U 25009AZ  26068.71026235  .00016057  00000+0  54903-3 0  9991
2 62656  97.3981 151.9913 0000987  45.3581 314.7740 15.30349724 63792
